[{"OBJECT_NAME":"TIANMU-1 22","OBJECT_ID":"2023-208D","EPOCH":"2026-03-09T22:39:05.738688","MEAN_MOTION":15.29457749,"ECCENTRICITY":0.00031332,"INCLINATION":97.4379,"RA_OF_ASC_NODE":184.9419,"ARG_OF_PERICENTER":351.9312,"MEAN_ANOMALY":8.1877,"EPHEMERIS_TYPE":0,"CLASSIFICATION_TYPE":"U","NORAD_CAT_ID":58663,"ELEMENT_SET_NO":999,"REV_AT_EPOCH":12215,"BSTAR":0.00038239675,"MEAN_MOTION_DOT":0.00010851,"MEAN_MOTION_DDOT":0},{"OBJECT_NAME":"STARLINK-31782","OBJECT_ID":"2024-080F","EPOCH":"2026-03-09T00:10:02.355744","MEAN_MOTION":15.27579787,"ECCENTRICITY":0.00012659,"INCLINATION":43.0026,"RA_OF_ASC_NODE":45.6133,"ARG_OF_PERICENTER":267.9937,"MEAN_ANOMALY":92.077,"EPHEMERIS_TYPE":0,"CLASSIFICATION_TYPE":"U","NORAD_CAT_ID":59606,"ELEMENT_SET_NO":999,"REV_AT_EPOCH":10438,"BSTAR":2.8974584e-5,"MEAN_MOTION_DOT":5.35e-6,"MEAN_MOTION_DDOT":0}]
